GLOBALSTAR M023         
1 25621U 99004A   25351.79513924 -.00000058  00000+0  25685-3 0  9996
2 25621  52.0085 214.3475 0009935 167.8541 271.2235 12.62510583238921
GLOBALSTAR M040         
1 25622U 99004B   25351.67366381 -.00000075  00000+0  16055-3 0  9997
2 25622  51.9897 219.1421 0001972  74.3014 321.8147 12.62025125238427
GLOBALSTAR M036         
1 25623U 99004C   25351.78076699 -.00000097  00000+0 -21300-3 0  9994
2 25623  51.9961 116.3986 0010842  46.3259 101.7568 11.86618160200771
GLOBALSTAR M038         
1 25624U 99004D   25351.68351964 -.00000072  00000+0  18798-3 0  9994
2 25624  51.9976 263.1194 0002656  69.5056 295.7226 12.32537458225006
GLOBALSTAR M022         
1 25649U 99012A   25351.76269652 -.00000056  00000+0  37064-3 0  9990
2 25649  52.0012 151.8550 0003182 154.0589 219.5287 12.02508235198469
GLOBALSTAR M041         
1 25650U 99012B   25351.80963997 -.00000081  00000+0  58105-4 0  9998
2 25650  52.0037  38.7769 0000811 331.7066  28.3726 11.96681260200261
GLOBALSTAR M046         
1 25651U 99012C   25351.76192368 -.00000196  00000+0 -11838-2 0  9998
2 25651  52.0055  95.2900 0001471 238.8001 288.5695 12.09415858205876
GLOBALSTAR M037         
1 25652U 99012D   25351.92562652 -.00000077  00000+0  15189-3 0  9995
2 25652  52.0026 344.4992 0001739 232.8639 140.1108 12.62458494234486
